STARLINK-37700          
1 69215U 26115E   26169.08987286  .00019427  00000+0  35780-3 0  9998
2 69215  97.2832 186.0893 0001209  89.5163 270.6226 15.49203730  4794
STARLINK-37766          
1 69216U 26115F   26169.25002315 -.01263036  00000+0 -25200-1 0  9993
2 69216  97.2853 186.6045 0001763 114.5993 171.3900 15.49638015  4860
STARLINK-37763          
1 69217U 26115G   26169.25002315 -.00001578  00000+0 -27359-4 0  9994
2 69217  97.2849 186.5510 0001284  88.1088  69.8181 15.49182339  4866
STARLINK-37724          
1 69218U 26115H   26169.25002315 -.02417834  00000+0 -55647-1 0  9991
2 69218  97.2844 186.6512 0001578 106.4353 265.6134 15.46063512  4862
STARLINK-37758          
1 69219U 26115J   26169.25002315 -.02360858  00000+0 -52997-1 0  9990
2 69219  97.2842 186.6604 0001502  90.8381 304.6036 15.46702464  4868
STARLINK-37201          
1 69220U 26115K   26169.25002315 -.02440906  00000+0 -56059-1 0  9998
2 69220  97.2853 186.6577 0001463 103.5642 282.8346 15.46160254  4865
STARLINK-37728          
1 69221U 26115L   26169.25002315 -.00451948  00000+0 -87399-2 0  9997
2 69221  97.2911 186.6408 0000951 111.3599 256.0811 15.49366448  4869
STARLINK-37760          
1 69222U 26115M   26169.25002315 -.02480667  00000+0 -54259-1 0  9998
2 69222  97.2851 186.6670 0001429  85.1303 334.0551 15.47623778  4864
STARLINK-37759          
1 69223U 26115N   26169.25002315  .00000868  00000+0  17630-4 0  9991
2 69223  97.2844 186.5551 0001078  96.6381  69.8234 15.49183712  4869
STARLINK-37725          
1 69224U 26115P   26169.25002315  .00010149  00000+0  18785-3 0  9996
2 69224  97.2847 186.5613 0001089  99.0012  80.0129 15.49217095  4862
STARLINK-37770          
1 69225U 26115Q   26169.25002315 -.02498199  00000+0 -52594-1 0  9990
2 69225  97.2853 186.6804 0001224  85.2032   8.0490 15.48740810  4869
STARLINK-37736          
1 69226U 26115R   26169.25002315  .00022749  00000+0  41915-3 0  9998
2 69226  97.2849 186.6634 0000914 106.3036 315.4011 15.49160438  4867
STARLINK-37737          
1 69227U 26115S   26169.25002315 -.01833387  00000+0 -37298-1 0  9997
2 69227  97.2855 186.6923 0001346  65.5114  55.9900 15.49766122  4886
STARLINK-37618          
1 69228U 26115T   26169.25002315 -.00005540  00000+0 -10028-3 0  9993
2 69228  97.2843 186.5514 0001468  90.2219  69.6970 15.49185308  4863
STARLINK-37679          
1 69229U 26115U   26169.25002315  .00000648  00000+0  13584-4 0  9997
2 69229  97.2843 186.5576 0000887  91.4793  82.8173 15.49183195  4860
STARLINK-37746          
1 69230U 26115V   26169.25002315  .00003462  00000+0  65358-4 0  9992
2 69230  97.2846 186.5385 0000657 159.5251 329.1640 15.49156267  4869
STARLINK-37557          
1 69231U 26115W   26168.99348320  .00038002  00000+0  69625-3 0  9990
2 69231  97.2838 186.2210 0001477  93.7643 266.3777 15.49220433  4792
STARLINK-37745          
1 69232U 26115X   26169.25002315 -.02024431  00000+0 -39303-1 0  9995
2 69232  97.2848 186.7192 0001623  64.7115 118.4776 15.50857165  4867
STARLINK-37739          
1 69233U 26115Y   26169.25002315 -.00010139  00000+0 -18506-3 0  9998
2 69233  97.2847 186.5338 0001264  79.4418  38.5201 15.49180906  4862
STARLINK-37755          
1 69234U 26115Z   26169.08475042  .00106898  00000+0  70805-3 0  9997
2 69234  97.2827 186.5561 0000785   1.2534 358.8733 15.75208871  4823
TJS-24                  
1 69235U 26116A   26169.12853780 -.00000237  00000+0  00000+0 0  9990
2 69235   0.0152  92.7175 0000294 300.5827   9.6260  1.00272618   231
STARLINK-37665          
1 69238U 26117A   26168.68764062  .00168154  00000+0  79436-3 0  9993
2 69238  53.1574 241.1111 0000956 104.2318 255.8812 15.82055012  3053
STARLINK-37558          
1 69239U 26117B   26168.68669155  .00297538  00000+0  13795-2 0  9995
2 69239  53.1571 241.1045 0001190  81.3276 278.7882 15.82094486  3055
STARLINK-37680          
1 69240U 26117C   26169.19064905  .00288872  00000+0  13391-2 0  9999
2 69240  53.1576 238.5570 0001356 106.0153 254.1020 15.82121723  3134
STARLINK-37742          
1 69241U 26117D   26168.68346589  .00207408  00000+0  97372-3 0  9992
2 69241  53.1575 241.0831 0000881  81.6710 278.4413 15.82073638  3059
STARLINK-37718          
1 69242U 26117E   26168.68223260  .00148853  00000+0  70541-3 0  9990
2 69242  53.1575 241.0733 0000870 100.9457 259.1664 15.82047041  3055
STARLINK-37735          
1 69243U 26117F   26168.68212490  .00197947  00000+0  93063-3 0  9996
2 69243  53.1576 241.0729 0000921 106.9398 253.1726 15.82070089  3050
STARLINK-37757          
1 69244U 26117G   26168.67973123  .00124879  00000+0  59416-3 0  9991
2 69244  53.1575 241.0560 0000956  96.9275 263.1857 15.82040575  3056
STARLINK-37767          
1 69245U 26117H   26168.67546785  .00211821  00000+0  99470-3 0  9990
2 69245  53.1570 241.0274 0000881  84.5475 275.5649 15.82055400  3055
