OBJECT_NAME,OBJECT_ID,EPOCH,MEAN_MOTION,ECCENTRICITY,INCLINATION,RA_OF_ASC_NODE,ARG_OF_PERICENTER,MEAN_ANOMALY,EPHEMERIS_TYPE,CLASSIFICATION_TYPE,NORAD_CAT_ID,ELEMENT_SET_NO,REV_AT_EPOCH,BSTAR,MEAN_MOTION_DOT,MEAN_MOTION_DDOT
STARLINK-37700,2026-115E,2026-06-18T02:09:25.015104,15.49203730,.00012092,97.2832,186.0893,89.5163,270.6226,0,U,69215,999,479,.35779794E-3,.19427E-3,0
STARLINK-37766,2026-115F,2026-06-18T06:00:02.000160,15.49638015,.00017632,97.2853,186.6045,114.5993,171.3900,0,U,69216,999,486,-.25200091E-1,-.1263036E-1,0
STARLINK-37763,2026-115G,2026-06-18T06:00:02.000160,15.49182339,.00012843,97.2849,186.5510,88.1088,69.8181,0,U,69217,999,486,-.27358925E-4,-.1578E-4,0
STARLINK-37724,2026-115H,2026-06-18T06:00:02.000160,15.46063512,.00015786,97.2844,186.6512,106.4353,265.6134,0,U,69218,999,486,-.55647313E-1,-.2417834E-1,0
STARLINK-37758,2026-115J,2026-06-18T06:00:02.000160,15.46702464,.0001502,97.2842,186.6604,90.8381,304.6036,0,U,69219,999,486,-.52996624E-1,-.2360858E-1,0
STARLINK-37201,2026-115K,2026-06-18T06:00:02.000160,15.46160254,.00014635,97.2853,186.6577,103.5642,282.8346,0,U,69220,999,486,-.56058735E-1,-.2440906E-1,0
STARLINK-37728,2026-115L,2026-06-18T06:00:02.000160,15.49366448,.00009516,97.2911,186.6408,111.3599,256.0811,0,U,69221,999,486,-.87399237E-2,-.451948E-2,0
STARLINK-37760,2026-115M,2026-06-18T06:00:02.000160,15.47623778,.00014293,97.2851,186.6670,85.1303,334.0551,0,U,69222,999,486,-.54258699E-1,-.2480667E-1,0
STARLINK-37759,2026-115N,2026-06-18T06:00:02.000160,15.49183712,.00010782,97.2844,186.5551,96.6381,69.8234,0,U,69223,999,486,.17630102E-4,.868E-5,0
STARLINK-37725,2026-115P,2026-06-18T06:00:02.000160,15.49217095,.00010895,97.2847,186.5613,99.0012,80.0129,0,U,69224,999,486,.18784804E-3,.10149E-3,0
STARLINK-37770,2026-115Q,2026-06-18T06:00:02.000160,15.48740810,.00012248,97.2853,186.6804,85.2032,8.0490,0,U,69225,999,486,-.52594253E-1,-.2498199E-1,0
STARLINK-37736,2026-115R,2026-06-18T06:00:02.000160,15.49160438,.00009142,97.2849,186.6634,106.3036,315.4011,0,U,69226,999,486,.41914915E-3,.22749E-3,0
STARLINK-37737,2026-115S,2026-06-18T06:00:02.000160,15.49766122,.0001346,97.2855,186.6923,65.5114,55.9900,0,U,69227,999,488,-.37297837E-1,-.1833387E-1,0
STARLINK-37618,2026-115T,2026-06-18T06:00:02.000160,15.49185308,.00014686,97.2843,186.5514,90.2219,69.6970,0,U,69228,999,486,-.10028046E-3,-.554E-4,0
STARLINK-37679,2026-115U,2026-06-18T06:00:02.000160,15.49183195,.00008872,97.2843,186.5576,91.4793,82.8173,0,U,69229,999,486,.13584257E-4,.648E-5,0
STARLINK-37746,2026-115V,2026-06-18T06:00:02.000160,15.49156267,.00006572,97.2846,186.5385,159.5251,329.1640,0,U,69230,999,486,.65358399E-4,.3462E-4,0
STARLINK-37557,2026-115W,2026-06-17T23:50:36.948480,15.49220433,.00014776,97.2838,186.2210,93.7643,266.3777,0,U,69231,999,479,.69624952E-3,.38002E-3,0
STARLINK-37745,2026-115X,2026-06-18T06:00:02.000160,15.50857165,.00016239,97.2848,186.7192,64.7115,118.4776,0,U,69232,999,486,-.39302663E-1,-.2024431E-1,0
STARLINK-37739,2026-115Y,2026-06-18T06:00:02.000160,15.49180906,.00012645,97.2847,186.5338,79.4418,38.5201,0,U,69233,999,486,-.18505878E-3,-.10139E-3,0
STARLINK-37755,2026-115Z,2026-06-18T02:02:02.436288,15.75208871,.00007857,97.2827,186.5561,1.2534,358.8733,0,U,69234,999,482,.70805425E-3,.106898E-2,0
TJS-24,2026-116A,2026-06-18T03:05:05.665920,1.00272618,.00002949,0.0152,92.7175,300.5827,9.6260,0,U,69235,999,23,0,-.237E-5,0
STARLINK-37665,2026-117A,2026-06-17T16:30:12.149568,15.82055012,.00009565,53.1574,241.1111,104.2318,255.8812,0,U,69238,999,305,.79435866E-3,.168154E-2,0
STARLINK-37558,2026-117B,2026-06-17T16:28:50.149920,15.82094486,.000119,53.1571,241.1045,81.3276,278.7882,0,U,69239,999,305,.13795085E-2,.297538E-2,0
STARLINK-37680,2026-117C,2026-06-18T04:34:32.077920,15.82121723,.00013565,53.1576,238.5570,106.0153,254.1020,0,U,69240,999,313,.13390852E-2,.288872E-2,0
STARLINK-37742,2026-117D,2026-06-17T16:24:11.452896,15.82073638,.00008813,53.1575,241.0831,81.6710,278.4413,0,U,69241,999,305,.97371658E-3,.207408E-2,0
STARLINK-37718,2026-117E,2026-06-17T16:22:24.896640,15.82047041,.00008706,53.1575,241.0733,100.9457,259.1664,0,U,69242,999,305,.70540646E-3,.148853E-2,0
STARLINK-37735,2026-117F,2026-06-17T16:22:15.591360,15.82070089,.00009213,53.1576,241.0729,106.9398,253.1726,0,U,69243,999,305,.930631E-3,.197947E-2,0
STARLINK-37757,2026-117G,2026-06-17T16:18:48.778272,15.82040575,.0000956,53.1575,241.0560,96.9275,263.1857,0,U,69244,999,305,.59416159E-3,.124879E-2,0
STARLINK-37767,2026-117H,2026-06-17T16:12:40.422240,15.82055400,.00008818,53.1570,241.0274,84.5475,275.5649,0,U,69245,999,305,.99469544E-3,.211821E-2,0
